{"fetched_at":"2026-03-30T06:02:59Z","count":15439,"tles":[{"name":"STARLINK-3134","line1":"1 49434U 21104AC  26087.88844196  .00002253  00000+0  15961-3 0  9999","line2":"2 49434  53.2158 143.0936 0001347  85.2054 274.9092 15.08835053242611","category":"Starlink"}]}